SCD 1                   
1 22490U 93009B   26169.77114647  .00000316  00000+0  35293-4 0  9994
2 22490  24.9677 197.7968 0042011 154.4157   7.0052 14.46119255761349
TECHSAT 1B (GO-32)      
1 25397U 98043D   26169.75022169  .00000035  00000+0  35257-4 0  9999
2 25397  99.0067 162.5483 0001133 159.7201 200.4022 14.24428644451550
SCD 2                   
1 25504U 98060A   26169.89363942  .00000348  00000+0  46206-4 0  9993
2 25504  24.9958  61.6335 0016901 140.7395 291.0310 14.45526431460578
DLR-TUBSAT              
1 25757U 99029B   26169.74012573  .00000046  00000+0  23201-4 0  9999
2 25757  98.6695 165.2953 0013945 350.4707   9.6221 14.52427137433477
TERRA                   
1 25994U 99068A   26169.81215806  .00000297  00000+0  69456-4 0  9997
2 25994  97.9456 219.2940 0001713 183.9700 311.2446 14.61104230409846
MAROC-TUBSAT            
1 27004U 01056D   26169.74495130 -.00000039  00000+0  86802-5 0  9993
2 27004  99.8083 346.6338 0020377 137.3864 237.0307 13.70262482226407
AQUA                    
1 27424U 02022A   26169.89527748  .00000585  00000+0  12608-3 0  9996
2 27424  98.4277 139.2122 0001036  54.2295 332.3972 14.62160251283522
SHIYAN-1 (SY-1)         
1 28220U 04012A   26169.74937700  .00010447  00000+0  32210-3 0  9998
2 28220  97.8688 247.9193 0005435  27.5184 332.6344 15.33793379211336
AURA                    
1 28376U 04026A   26169.83482828  .00000592  00000+0  12968-3 0  9999
2 28376  98.3417 126.3018 0001194  76.2941 283.8392 14.61331161166459
IRS-P5 (CARTOSAT-1)     
1 28649U 05017A   26169.82311777  .00001084  00000+0  11481-3 0  9992
2 28649  97.5306 192.8134 0002538  77.9455 282.2048 14.91052880144063
SINAH 1                 
1 28893U 05043D   26169.83097912  .00000234  00000+0  53906-4 0  9990
2 28893  98.2864 304.1626 0013129 271.1113  88.8585 14.64158545100762
RESURS-DK 1             
1 29228U 06021A   26169.75404219  .00001653  00000+0  98909-4 0  9991
2 29228  69.9330 335.4973 0006884 291.0753  68.9676 15.13223425102814
ARIRANG-2 (KOMPSAT-2)   
1 29268U 06031A   26169.87285010  .00000425  00000+0  88259-4 0  9998
2 29268  97.8304 354.2374 0015896  69.7355  37.3626 14.64661779 61726
LAPAN-TUBSAT            
1 29709U 07001A   26169.80312633 -.00000080  00000+0 -25836-5 0  9993
2 29709  98.1338 169.0635 0011989 174.1338 186.0019 14.85949037 51399
HAIYANG-1B              
1 31113U 07010A   26169.68305132  .00000069  00000+0  41876-4 0  9993
2 31113  98.3495 151.4702 0013111 191.7892 168.2986 14.31027215   852
COSMO-SKYMED 1          
1 31598U 07023A   26169.80593752  .00002243  00000+0  19959-3 0  9997
2 31598  97.8848   1.6751 0001419  98.3010 261.8372 14.97106365 30035
TERRASAR-X              
1 31698U 07026A   26168.58693640  .00000280  00000+0  16539-4 0  9993
2 31698  97.4452 176.2866 0001560  90.2646 269.8767 15.19150392 53284
WORLDVIEW-1 (WV-1)      
1 32060U 07041A   26169.67065922  .00004731  00000+0  19664-3 0  9997
2 32060  97.3882 289.3928 0002097  16.8714 343.2593 15.24280020 43107
YAOGAN-3                
1 32289U 07055A   26169.87247738  .00000690  00000+0  75876-4 0  9992
2 32289  97.8146 199.7335 0001814  81.0703 279.0721 14.90783543  6122
COSMO-SKYMED 2          
1 32376U 07059A   26169.84880917  .00000292  00000+0  43228-4 0  9996
2 32376  97.8886 353.4226 0001355  87.8176 272.3192 14.82156197  2254
RADARSAT-2              
1 32382U 07061A   26169.85705606 -.00000066  00000+0 -87921-5 0  9998
2 32382  98.5772 176.7658 0001309  84.6113 275.5219 14.29981782966197
CARTOSAT-2A             
1 32783U 08021A   26169.87290212  .00000064  00000+0  15389-4 0  9998
2 32783  97.7628 218.5241 0013219 103.9136 256.3547 14.79239254979054
HUANJING 1A (HJ-1A)     
1 33320U 08041A   26169.85201409  .00001139  00000+0  14262-3 0  9998
2 33320  97.6682 155.6261 0020118 129.6073 230.6922 14.83989581958650
HUANJING 1B (HJ-1B)     
1 33321U 08041B   26169.88929972  .00000217  00000+0  32480-4 0  9993
2 33321  97.6518 158.8286 0036194 175.2741 184.8823 14.83318398958664
GEOEYE 1                
1 33331U 08042A   26169.79141905  .00000351  00000+0  74838-4 0  9999
2 33331  98.1236 243.7024 0005349  65.7863 294.3899 14.64726995950384
THEOS                   
1 33396U 08049A   26169.80071235 -.00000149  00000+0 -49933-4 0  9992
2 33396  98.5566 227.0322 0001207  79.4551 280.6762 14.20132468918194
COSMO-SKYMED 3          
1 33412U 08054A   26169.80316814  .00002864  00000+0  19555-3 0  9992
2 33412  97.8280  28.4000 0014039 260.8381  99.1258 15.06962464957185
YAOGAN-4                
1 33446U 08061A   26169.78620706  .00000771  00000+0  10086-3 0  9997
2 33446  97.9307 103.2847 0015680  67.7329 292.5545 14.83202649945904
GOSAT (IBUKI)           
1 33492U 09002A   26169.77472794  .00000862  00000+0  16046-3 0  9998
2 33492  98.0893 280.8363 0001539  85.1901 274.9479 14.67541014931695
DEIMOS-1                
1 35681U 09041A   26169.88204529  .00000762  00000+0  11970-3 0  9994
2 35681  97.7405 327.0355 0001721 128.9534 231.1830 14.75240280907136
DUBAISAT-1              
1 35682U 09041B   26169.78486671  .00000581  00000+0  93568-4 0  9997
2 35682  98.0055 303.0250 0011610  69.2104 291.0348 14.75124648905336
