OBJECT_NAME,OBJECT_ID,EPOCH,MEAN_MOTION,ECCENTRICITY,INCLINATION,RA_OF_ASC_NODE,ARG_OF_PERICENTER,MEAN_ANOMALY,EPHEMERIS_TYPE,CLASSIFICATION_TYPE,NORAD_CAT_ID,ELEMENT_SET_NO,REV_AT_EPOCH,BSTAR,MEAN_MOTION_DOT,MEAN_MOTION_DDOT
SCD 1,1993-009B,2026-06-18T18:30:27.055008,14.46119255,.0042011,24.9677,197.7968,154.4157,7.0052,0,U,22490,999,76134,.35293E-4,.316E-5,0
TECHSAT 1B (GO-32),1998-043D,2026-06-18T18:00:19.154016,14.24428644,.0001133,99.0067,162.5483,159.7201,200.4022,0,U,25397,999,45155,.35257E-4,.35E-6,0
SCD 2,1998-060A,2026-06-18T21:26:50.445888,14.45526431,.0016901,24.9958,61.6335,140.7395,291.0310,0,U,25504,999,46057,.46206E-4,.348E-5,0
DLR-TUBSAT,1999-029B,2026-06-18T17:45:46.863072,14.52427137,.0013945,98.6695,165.2953,350.4707,9.6221,0,U,25757,999,43347,.23201E-4,.46E-6,0
TERRA,1999-068A,2026-06-18T19:29:30.456384,14.61104230,.0001713,97.9456,219.2940,183.9700,311.2446,0,U,25994,999,40984,.69456E-4,.297E-5,0
MAROC-TUBSAT,2001-056D,2026-06-18T17:52:43.792320,13.70262482,.0020377,99.8083,346.6338,137.3864,237.0307,0,U,27004,999,22640,.86802E-5,-.39E-6,0
AQUA,2002-022A,2026-06-18T21:29:11.974272,14.62160251,.0001036,98.4277,139.2122,54.2295,332.3972,0,U,27424,999,28352,.12608E-3,.585E-5,0
SHIYAN-1 (SY-1),2004-012A,2026-06-18T17:59:06.172800,15.33793379,.0005435,97.8688,247.9193,27.5184,332.6344,0,U,28220,999,21133,.3221E-3,.10447E-3,0
AURA,2004-026A,2026-06-18T20:02:09.163392,14.61331161,.0001194,98.3417,126.3018,76.2941,283.8392,0,U,28376,999,16645,.12968E-3,.592E-5,0
IRS-P5 (CARTOSAT-1),2005-017A,2026-06-18T19:45:17.375328,14.91052880,.0002538,97.5306,192.8134,77.9455,282.2048,0,U,28649,999,14406,.11481E-3,.1084E-4,0
SINAH 1,2005-043D,2026-06-18T19:56:36.595968,14.64158545,.0013129,98.2864,304.1626,271.1113,88.8585,0,U,28893,999,10076,.53906E-4,.234E-5,0
RESURS-DK 1,2006-021A,2026-06-18T18:05:49.245216,15.13223425,.0006884,69.9330,335.4973,291.0753,68.9676,0,U,29228,999,10281,.98909E-4,.1653E-4,0
ARIRANG-2 (KOMPSAT-2),2006-031A,2026-06-18T20:56:54.248640,14.64661779,.0015896,97.8304,354.2374,69.7355,37.3626,0,U,29268,999,6172,.88259E-4,.425E-5,0
LAPAN-TUBSAT,2007-001A,2026-06-18T19:16:30.114912,14.85949037,.0011989,98.1338,169.0635,174.1338,186.0019,0,U,29709,999,5139,-.25836E-5,-.8E-6,0
HAIYANG-1B,2007-010A,2026-06-18T16:23:35.634048,14.31027215,.0013111,98.3495,151.4702,191.7892,168.2986,0,U,31113,999,85,.41876E-4,.69E-6,0
COSMO-SKYMED 1,2007-023A,2026-06-18T19:20:33.001728,14.97106365,.0001419,97.8848,1.6751,98.3010,261.8372,0,U,31598,999,3003,.19959E-3,.2243E-4,0
TERRASAR-X,2007-026A,2026-06-17T14:05:11.304960,15.19150392,.00015603,97.4452,176.2866,90.2646,269.8767,0,U,31698,999,5328,.16539198E-4,.28E-5,0
WORLDVIEW-1 (WV-1),2007-041A,2026-06-18T16:05:44.956608,15.24280020,.0002097,97.3882,289.3928,16.8714,343.2593,0,U,32060,999,4310,.19664E-3,.4731E-4,0
YAOGAN-3,2007-055A,2026-06-18T20:56:22.045632,14.90783543,.0001814,97.8146,199.7335,81.0703,279.0721,0,U,32289,999,612,.75876E-4,.69E-5,0
COSMO-SKYMED 2,2007-059A,2026-06-18T20:22:17.112288,14.82156197,.0001355,97.8886,353.4226,87.8176,272.3192,0,U,32376,999,225,.43228E-4,.292E-5,0
RADARSAT-2,2007-061A,2026-06-18T20:34:09.643584,14.29981782,.0001309,98.5772,176.7658,84.6113,275.5219,0,U,32382,999,96619,-.87921E-5,-.66E-6,0
CARTOSAT-2A,2008-021A,2026-06-18T20:56:58.743168,14.79239254,.0013219,97.7628,218.5241,103.9136,256.3547,0,U,32783,999,97905,.15389E-4,.64E-6,0
HUANJING 1A (HJ-1A),2008-041A,2026-06-18T20:26:54.017376,14.83989581,.0020118,97.6682,155.6261,129.6073,230.6922,0,U,33320,999,95865,.14262E-3,.1139E-4,0
HUANJING 1B (HJ-1B),2008-041B,2026-06-18T21:20:35.495808,14.83318398,.0036194,97.6518,158.8286,175.2741,184.8823,0,U,33321,999,95866,.3248E-4,.217E-5,0
GEOEYE 1,2008-042A,2026-06-18T18:59:38.605920,14.64726995,.0005349,98.1236,243.7024,65.7863,294.3899,0,U,33331,999,95038,.74838E-4,.351E-5,0
THEOS,2008-049A,2026-06-18T19:13:01.547040,14.20132468,.0001207,98.5566,227.0322,79.4551,280.6762,0,U,33396,999,91819,-.49933E-4,-.149E-5,0
COSMO-SKYMED 3,2008-054A,2026-06-18T19:16:33.727296,15.06962464,.0014039,97.8280,28.4000,260.8381,99.1258,0,U,33412,999,95718,.19555E-3,.2864E-4,0
YAOGAN-4,2008-061A,2026-06-18T18:52:08.289984,14.83202649,.001568,97.9307,103.2847,67.7329,292.5545,0,U,33446,999,94590,.10086E-3,.771E-5,0
GOSAT (IBUKI),2009-002A,2026-06-18T18:35:36.494016,14.67541014,.0001539,98.0893,280.8363,85.1901,274.9479,0,U,33492,999,93169,.16046E-3,.862E-5,0
DEIMOS-1,2009-041A,2026-06-18T21:10:08.713056,14.75240280,.0001721,97.7405,327.0355,128.9534,231.1830,0,U,35681,999,90713,.1197E-3,.762E-5,0
DUBAISAT-1,2009-041B,2026-06-18T18:50:12.483744,14.75124648,.001161,98.0055,303.0250,69.2104,291.0348,0,U,35682,999,90533,.93568E-4,.581E-5,0
